TEVEL2-1                
1 63217U 25052H   26068.64782323  .00020683  00000+0  70600-3 0  9994
2 63217  97.3991 324.7682 0004767 104.8919 255.2849 15.30341923 54855
STARLINK-36081          
1 67498U 26012F   26068.05760604  .00041896  00000+0  15235-2 0  9990
2 67498  42.9991 318.1112 0001347 275.9114  84.1584 15.27575775  7661
